[{"OBJECT_NAME":"STARLINK-3998","OBJECT_ID":"2022-052N","EPOCH":"2026-03-09T21:14:54.233952","MEAN_MOTION":15.08834745,"ECCENTRICITY":0.00015005,"INCLINATION":53.2174,"RA_OF_ASC_NODE":283.2441,"ARG_OF_PERICENTER":85.6139,"MEAN_ANOMALY":274.5025,"EPHEMERIS_TYPE":0,"CLASSIFICATION_TYPE":"U","NORAD_CAT_ID":52610,"ELEMENT_SET_NO":999,"REV_AT_EPOCH":21081,"BSTAR":3.8239303e-5,"MEAN_MOTION_DOT":3.21e-6,"MEAN_MOTION_DDOT":0},{"OBJECT_NAME":"CSC-1","OBJECT_ID":"2023-155G","EPOCH":"2026-03-09T17:46:02.342496","MEAN_MOTION":15.1003596,"ECCENTRICITY":0.00075041,"INCLINATION":97.5446,"RA_OF_ASC_NODE":139.7305,"ARG_OF_PERICENTER":212.9992,"MEAN_ANOMALY":147.077,"EPHEMERIS_TYPE":0,"CLASSIFICATION_TYPE":"U","NORAD_CAT_ID":58022,"ELEMENT_SET_NO":999,"REV_AT_EPOCH":13272,"BSTAR":0.00054556609,"MEAN_MOTION_DOT":8.819e-5,"MEAN_MOTION_DDOT":0}]
